start=new Date('2023-02-25T00:00:00.000Z').valueOf();
sats=[{"PERIAPSIS":"546.275","INCLINATION":"53.0528","LAUNCH_DATE":"2021-05-04","MEAN_MOTION_DOT":"0.00018433","MEAN_MOTION":"15.06418194","APOAPSIS":"548.041","EPHEMERIS_TYPE":"0","REV_AT_EPOCH":"9991","MEAN_ELEMENT_THEORY":"SGP4","RCS_SIZE":"LARGE","CLASSIFICATION_TYPE":"U","NORAD_CAT_ID":"48354","DECAY_DATE":null,"ARG_OF_PERICENTER":"101.0782","ELEMENT_SET_NO":"999","FILE":"3835059","RA_OF_ASC_NODE":"298.9785","OBJECT_NAME":"STARLINK-2674","GP_ID":"226776454","ECCENTRICITY":"0.00012750","TLE_LINE2":"2 48354  53.0528 298.9785 0001275 101.0782 259.0351 15.06418194 99913","BSTAR":"0.00125250000000","PERIOD":"95.591","SEMIMAJOR_AXIS":"6925.293","TLE_LINE1":"1 48354U 21038B   23055.94170657  .00018433  00000-0  12525-2 0  9998","TIME_SYSTEM":"UTC","MEAN_MOTION_DDOT":"0.0000000000000","REF_FRAME":"TEME","EPOCH":"2023-02-24T22:36:03.447648","COUNTRY_CODE":"US","SITE":"AFETR","OBJECT_ID":"2021-038B","CENTER_NAME":"EARTH","OBJECT_TYPE":"PAYLOAD","MEAN_ANOMALY":"259.0351"},{"DECAY_DATE":null,"CLASSIFICATION_TYPE":"U","NORAD_CAT_ID":"48355","MEAN_ELEMENT_THEORY":"SGP4","RCS_SIZE":"LARGE","APOAPSIS":"547.972","EPHEMERIS_TYPE":"0","REV_AT_EPOCH":"9991","MEAN_MOTION_DOT":"0.00016285","MEAN_MOTION":"15.06418099","INCLINATION":"53.0524","PERIAPSIS":"546.344","LAUNCH_DATE":"2021-05-04","SEMIMAJOR_AXIS":"6925.293","TLE_LINE1":"1 48355U 21038C   23055.93801365  .00016285  00000-0  11091-2 0  9995","PERIOD":"95.591","BSTAR":"0.00110910000000","TLE_LINE2":"2 48355  53.0524 299.0023 0001175  88.9958 271.1165 15.06418099 99916","OBJECT_NAME":"STARLINK-2635","GP_ID":"226777203","ECCENTRICITY":"0.00011750","RA_OF_ASC_NODE":"299.0023","FILE":"3835059","ELEMENT_SET_NO":"999","ARG_OF_PERICENTER":"88.9958","SITE":"AFETR","EPOCH":"2023-02-24T22:30:44.379360","COUNTRY_CODE":"US","REF_FRAME":"TEME","MEAN_MOTION_DDOT":"0.0000000000000","TIME_SYSTEM":"UTC","MEAN_ANOMALY":"271.1165","OBJECT_TYPE":"PAYLOAD","CENTER_NAME":"EARTH","OBJECT_ID":"2021-038C"},{"OBJECT_TYPE":"PAYLOAD","MEAN_ANOMALY":"254.6421","OBJECT_ID":"2021-038D","CENTER_NAME":"EARTH","SITE":"AFETR","COUNTRY_CODE":"US","EPOCH":"2023-02-24T22:25:27.049440","TIME_SYSTEM":"UTC","REF_FRAME":"TEME","MEAN_MOTION_DDOT":"0.0000000000000","PERIOD":"95.589","TLE_LINE1":"1 48356U 21038D   23055.93434085  .00017369  00000-0  11804-2 0  9993","SEMIMAJOR_AXIS":"6925.186","BSTAR":"0.00118040000000","TLE_LINE2":"2 48356  53.0531 299.0175 0001144 105.4694 254.6421 15.06453088 99919","RA_OF_ASC_NODE":"299.0175","GP_ID":"226775955","ECCENTRICITY":"0.00011440","OBJECT_NAME":"STARLINK-2637","ELEMENT_SET_NO":"999","ARG_OF_PERICENTER":"105.4694","FILE":"3835059","DECAY_DATE":null,"NORAD_CAT_ID":"48356","CLASSIFICATION_TYPE":"U","REV_AT_EPOCH":"9991","EPHEMERIS_TYPE":"0","APOAPSIS":"547.843","RCS_SIZE":"LARGE","MEAN_ELEMENT_THEORY":"SGP4","LAUNCH_DATE":"2021-05-04","INCLINATION":"53.0531","PERIAPSIS":"546.259","MEAN_MOTION":"15.06453088","MEAN_MOTION_DOT":"0.00017369"},{"APOAPSIS":"547.907","REV_AT_EPOCH":"9991","EPHEMERIS_TYPE":"0","MEAN_ELEMENT_THEORY":"SGP4","RCS_SIZE":"LARGE","PERIAPSIS":"546.375","INCLINATION":"53.0506","LAUNCH_DATE":"2021-05-04","MEAN_MOTION_DOT":"0.00019425","MEAN_MOTION":"15.06423682","DECAY_DATE":null,"CLASSIFICATION_TYPE":"U","NORAD_CAT_ID":"48357","RA_OF_ASC_NODE":"299.0541","OBJECT_NAME":"STARLINK-2636","GP_ID":"226776204","ECCENTRICITY":"0.00011060","ARG_OF_PERICENTER":"100.0123","ELEMENT_SET_NO":"999","FILE":"3835059","PERIOD":"95.591","SEMIMAJOR_AXIS":"6925.276","TLE_LINE1":"1 48357U 21038E   23055.93338776  .00019425  00000-0  13185-2 0  9993","TLE_LINE2":"2 48357  53.0506 299.0541 0001106 100.0123 260.0990 15.06423682 99914","BSTAR":"0.00131850000000","TIME_SYSTEM":"UTC","REF_FRAME":"TEME","MEAN_MOTION_DDOT":"0.0000000000000","SITE":"AFETR","EPOCH":"2023-02-24T22:24:04.702464","COUNTRY_CODE":"US","OBJECT_ID":"2021-038E","CENTER_NAME":"EARTH","OBJECT_TYPE":"PAYLOAD","MEAN_ANOMALY":"260.0990"},{"TIME_SYSTEM":"UTC","MEAN_MOTION_DDOT":"0.0000000000000","REF_FRAME":"TEME","COUNTRY_CODE":"US","EPOCH":"2023-02-24T22:14:49.680096","SITE":"AFETR","OBJECT_ID":"2021-038F","CENTER_NAME":"EARTH","OBJECT_TYPE":"PAYLOAD","MEAN_ANOMALY":"247.0061","LAUNCH_DATE":"2021-05-04","INCLINATION":"53.0516","PERIAPSIS":"546.354","MEAN_MOTION":"15.06415975","MEAN_MOTION_DOT":"0.00011020","EPHEMERIS_TYPE":"0","REV_AT_EPOCH":"9990","APOAPSIS":"547.976","RCS_SIZE":"LARGE","MEAN_ELEMENT_THEORY":"SGP4","NORAD_CAT_ID":"48358","CLASSIFICATION_TYPE":"U","DECAY_DATE":null,"ELEMENT_SET_NO":"999","ARG_OF_PERICENTER":"113.1052","FILE":"3835059","RA_OF_ASC_NODE":"299.0533","ECCENTRICITY":"0.00011710","GP_ID":"226776954","OBJECT_NAME":"STARLINK-2624","BSTAR":"0.00075719000000","TLE_LINE2":"2 48358  53.0516 299.0533 0001171 113.1052 247.0061 15.06415975 99904","PERIOD":"95.591","TLE_LINE1":"1 48358U 21038F   23055.92696389  .00011020  00000-0  75719-3 0  9995","SEMIMAJOR_AXIS":"6925.300"},{"DECAY_DATE":null,"CLASSIFICATION_TYPE":"U","NORAD_CAT_ID":"48359","RCS_SIZE":"LARGE","MEAN_ELEMENT_THEORY":"SGP4","APOAPSIS":"548.056","REV_AT_EPOCH":"9989","EPHEMERIS_TYPE":"0","MEAN_MOTION_DOT":"0.00015990","MEAN_MOTION":"15.06421580","INCLINATION":"53.0507","PERIAPSIS":"546.239","LAUNCH_DATE":"2021-05-04","SEMIMAJOR_AXIS":"6925.282","TLE_LINE1":"1 48359U 21038G   23055.85692598  .00015990  00000-0  10893-2 0  9997","PERIOD":"95.591","BSTAR":"0.00108930000000","TLE_LINE2":"2 48359  53.0507 299.3685 0001312 100.6920 259.4217 15.06421580 99895","OBJECT_NAME":"STARLINK-2628","ECCENTRICITY":"0.00013120","GP_ID":"226776704","RA_OF_ASC_NODE":"299.3685","FILE":"3835059","ARG_OF_PERICENTER":"100.6920","ELEMENT_SET_NO":"999","SITE":"AFETR","EPOCH":"2023-02-24T20:33:58.404672","COUNTRY_CODE":"US","REF_FRAME":"TEME","MEAN_MOTION_DDOT":"0.0000000000000","TIME_SYSTEM":"UTC","MEAN_ANOMALY":"259.4217","OBJECT_TYPE":"PAYLOAD","CENTER_NAME":"EARTH","OBJECT_ID":"2021-038G"},{"SITE":"AFETR","EPOCH":"2023-02-24T20:28:39.883296","COUNTRY_CODE":"US","TIME_SYSTEM":"UTC","REF_FRAME":"TEME","MEAN_MOTION_DDOT":"0.0000000000000","OBJECT_TYPE":"PAYLOAD","MEAN_ANOMALY":"271.8597","OBJECT_ID":"2021-038H","CENTER_NAME":"EARTH","DECAY_DATE":null,"CLASSIFICATION_TYPE":"U","NORAD_CAT_ID":"48360","APOAPSIS":"547.863","REV_AT_EPOCH":"9989","EPHEMERIS_TYPE":"0","MEAN_ELEMENT_THEORY":"SGP4","RCS_SIZE":"LARGE","INCLINATION":"53.0511","PERIAPSIS":"546.452","LAUNCH_DATE":"2021-05-04","MEAN_MOTION_DOT":"0.00011478","MEAN_MOTION":"15.06418231","PERIOD":"95.591","SEMIMAJOR_AXIS":"6925.293","TLE_LINE1":"1 48360U 21038H   23055.85323939  .00011478  00000-0  78778-3 0  9993","TLE_LINE2":"2 48360  53.0511 299.3839 0001019  88.2509 271.8597 15.06418231 99899","BSTAR":"0.00078778000000","RA_OF_ASC_NODE":"299.3839","OBJECT_NAME":"STARLINK-2622","ECCENTRICITY":"0.00010190","GP_ID":"226775456","ELEMENT_SET_NO":"999","ARG_OF_PERICENTER":"88.2509","FILE":"3835059"},{"APOAPSIS":"548.000","REV_AT_EPOCH":"9989","EPHEMERIS_TYPE":"0","RCS_SIZE":"LARGE","MEAN_ELEMENT_THEORY":"SGP4","INCLINATION":"53.0513","PERIAPSIS":"546.423","LAUNCH_DATE":"2021-05-04","MEAN_MOTION_DOT":"0.00012652","MEAN_MOTION":"15.06400659","DECAY_DATE":null,"CLASSIFICATION_TYPE":"U","NORAD_CAT_ID":"48361","RA_OF_ASC_NODE":"299.3943","OBJECT_NAME":"STARLINK-2591","GP_ID":"226775705","ECCENTRICITY":"0.00011390","ARG_OF_PERICENTER":"105.6198","ELEMENT_SET_NO":"999","FILE":"3835059","PERIOD":"95.592","SEMIMAJOR_AXIS":"6925.347","TLE_LINE1":"1 48361U 21038J   23055.84954916  .00012652  00000-0  86670-3 0  9993","BSTAR":"0.00086670000000","TLE_LINE2":"2 48361  53.0513 299.3943 0001139 105.6198 254.4916 15.06400659 99896","TIME_SYSTEM":"UTC","MEAN_MOTION_DDOT":"0.0000000000000","REF_FRAME":"TEME","SITE":"AFETR","EPOCH":"2023-02-24T20:23:21.047424","COUNTRY_CODE":"US","OBJECT_ID":"2021-038J","CENTER_NAME":"EARTH","OBJECT_TYPE":"PAYLOAD","MEAN_ANOMALY":"254.4916"},{"OBJECT_ID":"2021-038K","CENTER_NAME":"EARTH","OBJECT_TYPE":"PAYLOAD","MEAN_ANOMALY":"283.2701","TIME_SYSTEM":"UTC","REF_FRAME":"TEME","MEAN_MOTION_DDOT":"0.0000000000000","SITE":"AFETR","EPOCH":"2023-02-24T22:46:41.149632","COUNTRY_CODE":"US","RA_OF_ASC_NODE":"299.0339","OBJECT_NAME":"STARLINK-2578","GP_ID":"226776455","ECCENTRICITY":"0.00011600","ELEMENT_SET_NO":"999","ARG_OF_PERICENTER":"76.8417","FILE":"3835059","PERIOD":"95.591","SEMIMAJOR_AXIS":"6925.281","TLE_LINE1":"1 48362U 21038K   23055.94908738  .00016502  00000-0  11235-2 0  9998","TLE_LINE2":"2 48362  53.0543 299.0339 0001160  76.8417 283.2701 15.06422035 99910","BSTAR":"0.00112350000000","APOAPSIS":"547.949","EPHEMERIS_TYPE":"0","REV_AT_EPOCH":"9991","MEAN_ELEMENT_THEORY":"SGP4","RCS_SIZE":"LARGE","INCLINATION":"53.0543","PERIAPSIS":"546.343","LAUNCH_DATE":"2021-05-04","MEAN_MOTION_DOT":"0.00016502","MEAN_MOTION":"15.06422035","DECAY_DATE":null,"CLASSIFICATION_TYPE":"U","NORAD_CAT_ID":"48362"},{"FILE":"3834314","ELEMENT_SET_NO":"999","ARG_OF_PERICENTER":"92.1378","GP_ID":"226737142","ECCENTRICITY":"0.00011530","OBJECT_NAME":"STARLINK-2626","RA_OF_ASC_NODE":"294.2066","TLE_LINE2":"2 48363  53.0518 294.2066 0001153  92.1378 267.9743 15.06390848100561","BSTAR":"-0.00002230500000","TLE_LINE1":"1 48363U 21038L   23055.89240958 -.00000613  00000-0 -22305-4 0  9996","SEMIMAJOR_AXIS":"6925.377","PERIOD":"95.593","MEAN_MOTION":"15.06390848","MEAN_MOTION_DOT":"-0.00000613","LAUNCH_DATE":"2021-05-04","PERIAPSIS":"546.443","INCLINATION":"53.0518","RCS_SIZE":"LARGE","MEAN_ELEMENT_THEORY":"SGP4","EPHEMERIS_TYPE":"0","REV_AT_EPOCH":"10056","APOAPSIS":"548.040","NORAD_CAT_ID":"48363","CLASSIFICATION_TYPE":"U","DECAY_DATE":null,"CENTER_NAME":"EARTH","OBJECT_ID":"2021-038L","MEAN_ANOMALY":"267.9743","OBJECT_TYPE":"PAYLOAD","MEAN_MOTION_DDOT":"0.0000000000000","REF_FRAME":"TEME","TIME_SYSTEM":"UTC","COUNTRY_CODE":"US","EPOCH":"2023-02-24T21:25:04.187712","SITE":"AFETR"}];
